STARLINK-32346          
1 61849U 24202E   26068.48254609 -.00000579  00000+0 -11504-4 0  9995
2 61849  43.0040 228.1127 0001955 284.2034  75.8601 15.27573633 75424
FLOCK 4G-7              
1 62624U 25009R   26068.79996108  .00011422  00000+0  43168-3 0  9991
2 62624  97.3984 150.8270 0001396 336.9783  23.1393 15.27141471 63725
